{"type": "FeatureCollection", "features": [ {"type": "Feature", "properties": {"norad_id": 34570, "name": "COSMOS 2251 DEB", "group": "cosmos-2251-debris", "lat": 73.55545166093378, "lon": -34.90534242349523, "alt_km": 751.4106909087741, "timestamp": "2025-12-10T11:33:53.778627+00:00", "meta": {"OBJECT_NAME": "COSMOS 2251 DEB", "OBJECT_ID": "1993-036VG", "EPOCH": "2025-12-10T01:09:18.156384", "MEAN_MOTION": 13.99812722, "ECCENTRICITY": 0.0190215, "INCLINATION": 73.9575, "RA_OF_ASC_NODE": 222.9632, "ARG_OF_PERICENTER": 106.0591, "MEAN_ANOMALY": 323.0452, "EPHEMERIS_TYPE": 0, "CLASSIFICATION_TYPE": "U", "NORAD_CAT_ID": 34570, "ELEMENT_SET_NO": 999, "REV_AT_EPOCH": 85563, "BSTAR": 0.00062307, "MEAN_MOTION_DOT": 1.045e-05, "MEAN_MOTION_DDOT": 0}, "tle": {"line1": "1 34570U 93036VG  25344.04812681  .00001045  00000+0  62307-3 0  9998", "line2": "2 34570  73.9575 222.9632 0190215 106.0591 323.0452 13.99812722855633"}}, "geometry": {"type": "Point", "coordinates": [-34.90534242349523, 73.55545166093378]}}, {"type": "Feature", "properties": {"norad_id": 34571, "name": "COSMOS 2251 DEB", "group": "cosmos-2251-debris", "lat": -73.82111057184781, "lon": 87.22986661786273, "alt_km": 703.2294934977808, "timestamp": "2025-12-10T11:33:53.778637+00:00", "meta": {"OBJECT_NAME": "COSMOS 2251 DEB", "OBJECT_ID": "1993-036VH", "EPOCH": "2025-12-09T06:09:38.106720", "MEAN_MOTION": 14.48721172, "ECCENTRICITY": 0.0066557, "INCLINATION": 74.0386, "RA_OF_ASC_NODE": 188.9585, "ARG_OF_PERICENTER": 224.7562, "MEAN_ANOMALY": 134.8218, "EPHEMERIS_TYPE": 0, "CLASSIFICATION_TYPE": "U", "NORAD_CAT_ID": 34571, "ELEMENT_SET_NO": 999, "REV_AT_EPOCH": 87243, "BSTAR": 0.0025604, "MEAN_MOTION_DOT": 9.914e-05, "MEAN_MOTION_DDOT": 0}, "tle": {"line1": "1 34571U 93036VH  25343.25669105  .00009914  00000+0  25604-2 0  9993", "line2": "2 34571  74.0386 188.9585 0066557 224.7562 134.8218 14.48721172872439"}}, "geometry": {"type": "Point", "coordinates": [87.22986661786273, -73.82111057184781]}}, {"type": "Feature", "properties": {"norad_id": 34572, "name": "COSMOS 2251 DEB", "group": "cosmos-2251-debris", "lat": 57.28176469296665, "lon": -86.75424590681932, "alt_km": 708.0628144535522, "timestamp": "2025-12-10T11:33:53.778647+00:00", "meta": {"OBJECT_NAME": "COSMOS 2251 DEB", "OBJECT_ID": "1993-036VJ", "EPOCH": "2025-12-08T19:57:57.467232", "MEAN_MOTION": 14.49880112, "ECCENTRICITY": 0.00633866, "INCLINATION": 74.0103, "RA_OF_ASC_NODE": 122.8558, "ARG_OF_PERICENTER": 197.3594, "MEAN_ANOMALY": 313.4756, "EPHEMERIS_TYPE": 0, "CLASSIFICATION_TYPE": "U", "NORAD_CAT_ID": 34572, "ELEMENT_SET_NO": 999, "REV_AT_EPOCH": 87321, "BSTAR": 0.0045546046, "MEAN_MOTION_DOT": 0.00018073, "MEAN_MOTION_DDOT": 0}, "tle": {"line1": "1 34572U 93036VJ  25342.83191513  .00018073  00000+0  45546-2 0  9993", "line2": "2 34572  74.0103 122.8558 0063386 197.3594 313.4756 14.49880112873211"}}, "geometry": {"type": "Point", "coordinates": [-86.75424590681932, 57.28176469296665]}}, {"type": "Feature", "properties": {"norad_id": 34574, "name": "COSMOS 2251 DEB", "group": "cosmos-2251-debris", "lat": -19.42257820917394, "lon": -126.71337608541522, "alt_km": 694.6922851055651, "timestamp": "2025-12-10T11:33:53.778657+00:00", "meta": {"OBJECT_NAME": "COSMOS 2251 DEB", "OBJECT_ID": "1993-036VL", "EPOCH": "2025-12-10T04:16:18.756768", "MEAN_MOTION": 14.7055855, "ECCENTRICITY": 0.006671, "INCLINATION": 74.0689, "RA_OF_ASC_NODE": 48.0946, "ARG_OF_PERICENTER": 69.7887, "MEAN_ANOMALY": 321.6873, "EPHEMERIS_TYPE": 0, "CLASSIFICATION_TYPE": "U", "NORAD_CAT_ID": 34574, "ELEMENT_SET_NO": 999, "REV_AT_EPOCH": 88741, "BSTAR": 0.0012557, "MEAN_MOTION_DOT": 7.871e-05, "MEAN_MOTION_DDOT": 0}, "tle": {"line1": "1 34574U 93036VL  25344.17799487  .00007871  00000+0  12557-2 0  9998", "line2": "2 34574  74.0689  48.0946 0066710  69.7887 321.6873 14.70558550887413"}}, "geometry": {"type": "Point", "coordinates": [-126.71337608541522, -19.42257820917394]}}, {"type": "Feature", "properties": {"norad_id": 34576, "name": "COSMOS 2251 DEB", "group": "cosmos-2251-debris", "lat": -62.76541596159478, "lon": 108.6775782237336, "alt_km": 709.4466737299981, "timestamp": "2025-12-10T11:33:53.778666+00:00", "meta": {"OBJECT_NAME": "COSMOS 2251 DEB", "OBJECT_ID": "1993-036VN", "EPOCH": "2025-12-09T21:43:33.777984", "MEAN_MOTION": 14.55389874, "ECCENTRICITY": 0.0007999, "INCLINATION": 74.0337, "RA_OF_ASC_NODE": 143.5662, "ARG_OF_PERICENTER": 278.3289, "MEAN_ANOMALY": 234.1311, "EPHEMERIS_TYPE": 0, "CLASSIFICATION_TYPE": "U", "NORAD_CAT_ID": 34576, "ELEMENT_SET_NO": 999, "REV_AT_EPOCH": 88425, "BSTAR": 0.0012353, "MEAN_MOTION_DOT": 5.342e-05, "MEAN_MOTION_DDOT": 0}, "tle": {"line1": "1 34576U 93036VN  25343.90525206  .00005342  00000+0  12353-2 0  9991", "line2": "2 34576  74.0337 143.5662 0007999 278.3289 234.1311 14.55389874884257"}}, "geometry": {"type": "Point", "coordinates": [108.6775782237336, -62.76541596159478]}}, {"type": "Feature", "properties": {"norad_id": 34579, "name": "COSMOS 2251 DEB", "group": "cosmos-2251-debris", "lat": -49.59407894630191, "lon": 67.72385113629399, "alt_km": 739.1589630070666, "timestamp": "2025-12-10T11:33:53.778676+00:00", "meta": {"OBJECT_NAME": "COSMOS 2251 DEB", "OBJECT_ID": "1993-036VR", "EPOCH": "2025-12-10T02:52:51.030912", "MEAN_MOTION": 14.45296122, "ECCENTRICITY": 0.0027576, "INCLINATION": 74.053, "RA_OF_ASC_NODE": 228.7701, "ARG_OF_PERICENTER": 297.8058, "MEAN_ANOMALY": 212.875, "EPHEMERIS_TYPE": 0, "CLASSIFICATION_TYPE": "U", "NORAD_CAT_ID": 34579, "ELEMENT_SET_NO": 999, "REV_AT_EPOCH": 88136, "BSTAR": 0.00058709, "MEAN_MOTION_DOT": 2.044e-05, "MEAN_MOTION_DDOT": 0}, "tle": {"line1": "1 34579U 93036VR  25344.12003508  .00002044  00000+0  58709-3 0  9997", "line2": "2 34579  74.0530 228.7701 0027576 297.8058 212.8750 14.45296122881369"}}, "geometry": {"type": "Point", "coordinates": [67.72385113629399, -49.59407894630191]}}, {"type": "Feature", "properties": {"norad_id": 34582, "name": "COSMOS 2251 DEB", "group": "cosmos-2251-debris", "lat": -6.918407055864808, "lon": 98.56869041352456, "alt_km": 782.9589579079675, "timestamp": "2025-12-10T11:33:53.778686+00:00", "meta": {"OBJECT_NAME": "COSMOS 2251 DEB", "OBJECT_ID": "1993-036VU", "EPOCH": "2025-12-09T19:43:52.800096", "MEAN_MOTION": 14.43300385, "ECCENTRICITY": 0.0047687, "INCLINATION": 74.0201, "RA_OF_ASC_NODE": 277.8024, "ARG_OF_PERICENTER": 28.606, "MEAN_ANOMALY": 331.7697, "EPHEMERIS_TYPE": 0, "CLASSIFICATION_TYPE": "U", "NORAD_CAT_ID": 34582, "ELEMENT_SET_NO": 999, "REV_AT_EPOCH": 87905, "BSTAR": 0.001294, "MEAN_MOTION_DOT": 4.396e-05, "MEAN_MOTION_DDOT": 0}, "tle": {"line1": "1 34582U 93036VU  25343.82213889  .00004396  00000+0  12940-2 0  9990", "line2": "2 34582  74.0201 277.8024 0047687  28.6060 331.7697 14.43300385879058"}}, "geometry": {"type": "Point", "coordinates": [98.56869041352456, -6.918407055864808]}}, {"type": "Feature", "properties": {"norad_id": 34588, "name": "COSMOS 2251 DEB", "group": "cosmos-2251-debris", "lat": -66.21733851360877, "lon": 132.92147790817404, "alt_km": 754.7857592355667, "timestamp": "2025-12-10T11:33:53.778696+00:00", "meta": {"OBJECT_NAME": "COSMOS 2251 DEB", "OBJECT_ID": "1993-036WA", "EPOCH": "2025-12-10T04:15:28.615392", "MEAN_MOTION": 14.42008516, "ECCENTRICITY": 0.0019128, "INCLINATION": 74.0439, "RA_OF_ASC_NODE": 273.0031, "ARG_OF_PERICENTER": 325.9451, "MEAN_ANOMALY": 146.4911, "EPHEMERIS_TYPE": 0, "CLASSIFICATION_TYPE": "U", "NORAD_CAT_ID": 34588, "ELEMENT_SET_NO": 999, "REV_AT_EPOCH": 87913, "BSTAR": 0.00072597, "MEAN_MOTION_DOT": 2.361e-05, "MEAN_MOTION_DDOT": 0}, "tle": {"line1": "1 34588U 93036WA  25344.17741453  .00002361  00000+0  72597-3 0  9993", "line2": "2 34588  74.0439 273.0031 0019128 325.9451 146.4911 14.42008516879138"}}, "geometry": {"type": "Point", "coordinates": [132.92147790817404, -66.21733851360877]}}, {"type": "Feature", "properties": {"norad_id": 34589, "name": "COSMOS 2251 DEB", "group": "cosmos-2251-debris", "lat": -9.584334120454253, "lon": -117.3298582684127, "alt_km": 1129.4436579491476, "timestamp": "2025-12-10T11:33:53.778706+00:00", "meta": {"OBJECT_NAME": "COSMOS 2251 DEB", "OBJECT_ID": "1993-036WB", "EPOCH": "2025-12-09T12:13:17.410656", "MEAN_MOTION": 13.8604857, "ECCENTRICITY": 0.02517935, "INCLINATION": 73.9254, "RA_OF_ASC_NODE": 61.5361, "ARG_OF_PERICENTER": 5.5277, "MEAN_ANOMALY": 13.2328, "EPHEMERIS_TYPE": 0, "CLASSIFICATION_TYPE": "U", "NORAD_CAT_ID": 34589, "ELEMENT_SET_NO": 999, "REV_AT_EPOCH": 84667, "BSTAR": 0.00037001793, "MEAN_MOTION_DOT": 5.22e-06, "MEAN_MOTION_DDOT": 0}, "tle": {"line1": "1 34589U 93036WB  25343.50922929  .00000522  00000+0  37002-3 0  9998", "line2": "2 34589  73.9254  61.5361 0251793   5.5277  13.2328 13.86048570846678"}}, "geometry": {"type": "Point", "coordinates": [-117.3298582684127, -9.584334120454253]}}, {"type": "Feature", "properties": {"norad_id": 34590, "name": "COSMOS 2251 DEB", "group": "cosmos-2251-debris", "lat": -23.493799844608894, "lon": -40.32180238639955, "alt_km": 740.0043790106565, "timestamp": "2025-12-10T11:33:53.778715+00:00", "meta": {"OBJECT_NAME": "COSMOS 2251 DEB", "OBJECT_ID": "1993-036WC", "EPOCH": "2025-12-09T22:36:32.033088", "MEAN_MOTION": 14.54820499, "ECCENTRICITY": 0.0067964, "INCLINATION": 74.0436, "RA_OF_ASC_NODE": 327.8432, "ARG_OF_PERICENTER": 98.2692, "MEAN_ANOMALY": 291.8595, "EPHEMERIS_TYPE": 0, "CLASSIFICATION_TYPE": "U", "NORAD_CAT_ID": 34590, "ELEMENT_SET_NO": 999, "REV_AT_EPOCH": 89080, "BSTAR": 0.00019594, "MEAN_MOTION_DOT": 8.37e-06, "MEAN_MOTION_DDOT": 0}, "tle": {"line1": "1 34590U 93036WC  25343.94203742  .00000837  00000+0  19594-3 0  9998", "line2": "2 34590  74.0436 327.8432 0067964  98.2692 291.8595 14.54820499890804"}}, "geometry": {"type": "Point", "coordinates": [-40.32180238639955, -23.493799844608894]}}]}